NORAD_CAT_ID,OBJECT_NAME,OBJECT_TYPE,EPOCH,MEAN_MOTION,ECCENTRICITY,INCLINATION,RA_OF_ASC_NODE,ARG_OF_PERICENTER,MEAN_ANOMALY,BSTAR,MEAN_MOTION_DOT,MEAN_MOTION_DDOT,TLE_LINE0,TLE_LINE1,TLE_LINE2,SEMIMAJOR_AXIS,PERIOD,APOGEE,PERIGEE,DECAYED
53982.0,STARLINK-5120,PAYLOAD,2024-03-14 20:02:51,15.08831874,0.0001425,53.2114,228.148,100.712,259.4032,-5.8511e-05,-1.219e-05,0.0,0 STARLINK-5120,1 53982U 22125U   24074.83531929 -.00001219  00000-0 -58511-4 0  9995,2 53982  53.2114 228.1480 0001425 100.7120 259.4032 15.08831874 80102,6917.905,95.438,540.756,538.784,0.0
53982.0,STARLINK-5120,PAYLOAD,2024-03-15 10:21:19,15.0883353,0.0001374,53.2123,225.4712,99.7751,260.3396,5.5867e-05,6.01e-06,0.0,0 STARLINK-5120,1 53982U 22125U   24075.43148130  .00000601  00000-0  55867-4 0  9993,2 53982  53.2123 225.4712 0001374  99.7751 260.3396 15.08833530 80116,6917.9,95.438,540.716,538.815,0.0
53982.0,STARLINK-5120,PAYLOAD,2024-03-16 08:36:44,15.08833072,0.0001314,53.2122,221.3096,90.6628,269.4514,0.00029167,4.356e-05,0.0,0 STARLINK-5120,1 53982U 22125U   24076.35885119  .00004356  00000-0  29167-3 0  9994,2 53982  53.2122 221.3096 0001314  90.6628 269.4514 15.08833072 80339,6917.902,95.438,540.676,538.858,0.0
53982.0,STARLINK-5120,PAYLOAD,2024-03-16 14:58:17,15.08834685,0.0001444,53.2153,220.1198,108.2861,251.8289,0.00024772,3.656e-05,0.0,0 STARLINK-5120,1 53982U 22125U   24076.62381140  .00003656  00000-0  24772-3 0  9998,2 53982  53.2153 220.1198 0001444 108.2861 251.8289 15.08834685 80292,6917.897,95.438,540.761,538.763,0.0
53982.0,STARLINK-5120,PAYLOAD,2024-03-16 16:33:40,15.08835121,0.0001283,53.2153,219.823,96.9567,263.1571,0.00024076,3.545e-05,0.0,0 STARLINK-5120,1 53982U 22125U   24076.69005190  .00003545  00000-0  24076-3 0  9997,2 53982  53.2153 219.8230 0001283  96.9567 263.1571 15.08835121 80309,6917.895,95.438,540.648,538.873,0.0
53982.0,STARLINK-5120,PAYLOAD,2024-03-17 13:13:41,15.08842751,0.0001323,53.2166,215.9592,94.9856,265.1287,0.00024286,3.58e-05,0.0,0 STARLINK-5120,1 53982U 22125U   24077.55117104  .00003580  00000-0  24286-3 0  9994,2 53982  53.2166 215.9592 0001323  94.9856 265.1287 15.08842751 80511,6917.872,95.437,540.652,538.822,0.0
53982.0,STARLINK-5120,PAYLOAD,2024-03-17 14:49:04,15.08844198,0.0001332,53.2165,215.6619,95.4803,264.6341,0.00026091,3.867e-05,0.0,0 STARLINK-5120,1 53982U 22125U   24077.61741043  .00003867  00000-0  26091-3 0  9990,2 53982  53.2165 215.6619 0001332  95.4803 264.6341 15.08844198 80449,6917.868,95.437,540.654,538.811,0.0
53982.0,STARLINK-5120,PAYLOAD,2024-03-18 17:50:37,15.08846306,0.000131,53.2162,210.6072,91.3902,268.724,0.00017025,2.423e-05,0.0,0 STARLINK-5120,1 53982U 22125U   24078.74348817  .00002423  00000-0  17025-3 0  9991,2 53982  53.2162 210.6072 0001310  91.3902 268.7240 15.08846306 80698,6917.861,95.437,540.632,538.82,0.0
53982.0,STARLINK-5120,PAYLOAD,2024-03-19 08:09:05,15.08842674,0.0001191,53.2154,207.9304,86.6476,273.4653,3.4732e-05,2.65e-06,0.0,0 STARLINK-5120,1 53982U 22125U   24079.33964820  .00000265  00000-0  34732-4 0  9992,2 53982  53.2154 207.9304 0001191  86.6476 273.4653 15.08842674 80703,6917.872,95.437,540.561,538.913,0.0
53982.0,STARLINK-5120,PAYLOAD,2024-03-20 14:21:25,15.08835421,0.0001331,53.2149,202.2809,93.5729,266.5415,8.3685e-05,1.044e-05,0.0,0 STARLINK-5120,1 53982U 22125U   24080.59821487  .00001044  00000-0  83685-4 0  9990,2 53982  53.2149 202.2809 0001331  93.5729 266.5415 15.08835421 80890,6917.894,95.438,540.68,538.839,0.0
53982.0,STARLINK-5120,PAYLOAD,2024-03-21 14:12:12,15.08849291,0.0001418,53.2158,197.8207,91.1371,268.9783,0.00049159,7.546e-05,0.0,0 STARLINK-5120,1 53982U 22125U   24081.59181393  .00007546  00000-0  49159-3 0  9996,2 53982  53.2158 197.8207 0001418  91.1371 268.9783 15.08849291 81046,6917.852,95.437,540.698,538.736,0.0
53982.0,STARLINK-5120,PAYLOAD,2024-03-22 12:27:36,15.08854951,0.0001549,53.2166,193.6579,91.6708,268.4462,0.00033615,5.068e-05,0.0,0 STARLINK-5120,1 53982U 22125U   24082.51916798  .00005068  00000-0  33615-3 0  9991,2 53982  53.2166 193.6579 0001549  91.6708 268.4462 15.08854951 81267,6917.835,95.437,540.771,538.628,0.0
53982.0,STARLINK-5120,PAYLOAD,2024-03-22 14:02:59,15.08858863,0.0001582,53.2175,193.3624,89.9273,270.1901,0.00044673,6.832e-05,0.0,0 STARLINK-5120,1 53982U 22125U   24082.58540635  .00006832  00000-0  44673-3 0  9997,2 53982  53.2175 193.3624 0001582  89.9273 270.1901 15.08858863 81195,6917.823,95.436,540.782,538.593,0.0
53982.0,STARLINK-5120,PAYLOAD,2024-03-23 12:18:23,15.08835477,0.0001557,53.2168,189.1976,96.1501,263.9669,-8.0337e-05,-1.566e-05,0.0,0 STARLINK-5120,1 53982U 22125U   24083.51277621 -.00001566  00000-0 -80337-4 0  9992,2 53982  53.2168 189.1976 0001557  96.1501 263.9669 15.08835477 81418,6917.894,95.438,540.836,538.682,0.0
53982.0,STARLINK-5120,PAYLOAD,2024-03-24 12:09:10,15.08855267,0.0001681,53.2173,184.7357,96.9524,263.1659,0.00045889,7.026e-05,0.0,0 STARLINK-5120,1 53982U 22125U   24084.50637164  .00007026  00000-0  45889-3 0  9991,2 53982  53.2173 184.7357 0001681  96.9524 263.1659 15.08855267 81565,6917.834,95.437,540.862,538.536,0.0
53982.0,STARLINK-5120,PAYLOAD,2024-03-24 23:16:52,15.08854356,0.0001861,53.2164,182.6522,84.5952,275.5252,0.00056744,8.758e-05,0.0,0 STARLINK-5120,1 53982U 22125U   24084.97005525  .00008758  00000-0  56744-3 0  9997,2 53982  53.2164 182.6522 0001861  84.5952 275.5252 15.08854356 81636,6917.837,95.437,540.989,538.414,0.0
53982.0,STARLINK-5120,PAYLOAD,2024-03-25 13:35:21,15.08849315,0.000145,53.2164,179.9812,93.494,266.6218,0.00034343,5.183e-05,0.0,0 STARLINK-5120,1 53982U 22125U   24085.56621795  .00005183  00000-0  34343-3 0  9996,2 53982  53.2164 179.9812 0001450  93.4940 266.6218 15.08849315 81729,6917.852,95.437,540.72,538.714,0.0
53982.0,STARLINK-5120,PAYLOAD,2024-03-26 11:50:46,15.08820815,0.000132,53.2157,175.8134,95.8833,264.231,-0.00015206,-2.706e-05,0.0,0 STARLINK-5120,1 53982U 22125U   24086.49359401 -.00002706  00000-0 -15206-3 0  9998,2 53982  53.2157 175.8134 0001320  95.8833 264.2310 15.08820815 81862,6917.939,95.439,540.717,538.891,0.0
53982.0,STARLINK-5120,PAYLOAD,2024-03-26 22:58:28,15.0883029,0.0001383,53.216,173.7303,71.9898,288.1245,0.00012425,1.69e-05,0.0,0 STARLINK-5120,1 53982U 22125U   24086.95727733  .00001690  00000-0  12425-3 0  9995,2 53982  53.2160 173.7303 0001383  71.9898 288.1245 15.08830290 81934,6917.91,95.438,540.732,538.818,0.0
53982.0,STARLINK-5120,PAYLOAD,2024-03-27 11:41:33,15.08850367,0.0001409,53.2144,171.3551,73.5389,286.5758,0.00045132,6.904e-05,0.0,0 STARLINK-5120,1 53982U 22125U   24087.48718967  .00006904  00000-0  45132-3 0  9997,2 53982  53.2144 171.3551 0001409  73.5389 286.5758 15.08850367 82015,6917.849,95.437,540.688,538.739,0.0
53982.0,STARLINK-5120,PAYLOAD,2024-03-27 13:16:56,15.0885868,0.0001386,53.2158,171.0559,75.0223,285.0922,0.00064179,9.946e-05,0.0,0 STARLINK-5120,1 53982U 22125U   24087.55342802  .00009946  00000-0  64179-3 0  9997,2 53982  53.2158 171.0559 0001386  75.0223 285.0922 15.08858680 81947,6917.823,95.436,540.647,538.729,0.0
53982.0,STARLINK-5120,PAYLOAD,2024-03-28 11:32:20,15.08849681,0.0001403,53.2174,166.891,87.6313,272.484,0.00022309,3.265e-05,0.0,0 STARLINK-5120,1 53982U 22125U   24088.48078719  .00003265  00000-0  22309-3 0  9990,2 53982  53.2174 166.8910 0001403  87.6313 272.4840 15.08849681 82162,6917.851,95.437,540.686,538.745,0.0
53982.0,STARLINK-5120,PAYLOAD,2024-03-28 22:40:01,15.08853773,0.0001485,53.2171,164.811,82.9828,277.1333,0.00016687,2.37e-05,0.0,0 STARLINK-5120,1 53982U 22125U   24088.94446214  .00002370  00000-0  16687-3 0  9998,2 53982  53.2171 164.8110 0001485  82.9828 277.1333 15.08853773 82153,6917.838,95.437,540.731,538.676,0.0
53982.0,STARLINK-5120,PAYLOAD,2024-03-29 11:23:06,15.08851188,0.0001625,53.2149,162.4329,87.4664,272.6514,6.7129e-05,7.81e-06,0.0,0 STARLINK-5120,1 53982U 22125U   24089.47438033  .00000781  00000-0  67129-4 0  9999,2 53982  53.2149 162.4329 0001625  87.4664 272.6514 15.08851188 82236,6917.846,95.437,540.835,538.587,0.0
53982.0,STARLINK-5120,PAYLOAD,2024-03-30 04:52:21,15.08842196,0.0001555,53.2155,159.1622,91.2586,268.8585,8.2851e-05,1.031e-05,0.0,0 STARLINK-5120,1 53982U 22125U   24090.20302335  .00001031  00000-0  82851-4 0  9995,2 53982  53.2155 159.1622 0001555  91.2586 268.8585 15.08842196 82425,6917.874,95.437,540.814,538.663,0.0
53982.0,STARLINK-5120,PAYLOAD,2024-03-30 11:13:53,15.08845455,0.0001596,53.2161,157.9729,90.7079,269.4096,9.3176e-05,1.195e-05,0.0,0 STARLINK-5120,1 53982U 22125U   24090.46798218  .00001195  00000-0  93176-4 0  9995,2 53982  53.2161 157.9729 0001596  90.7079 269.4096 15.08845455 82382,6917.864,95.437,540.833,538.625,0.0
53982.0,STARLINK-5120,PAYLOAD,2024-03-31 04:43:08,15.08831078,0.0001506,53.2162,154.7019,92.7679,267.3486,5.8485e-05,6.43e-06,0.0,0 STARLINK-5120,1 53982U 22125U   24091.19663071  .00000643  00000-0  58485-4 0  9995,2 53982  53.2162 154.7019 0001506  92.7679 267.3486 15.08831078 82576,6917.908,95.438,540.814,538.731,0.0
53982.0,STARLINK-5120,PAYLOAD,2024-03-31 11:04:41,15.08838691,0.0001518,53.2168,153.5133,94.0013,266.1152,7.5153e-05,9.08e-06,0.0,0 STARLINK-5120,1 53982U 22125U   24091.46158838  .00000908  00000-0  75153-4 0  9990,2 53982  53.2168 153.5133 0001518  94.0013 266.1152 15.08838691 82537,6917.884,95.438,540.8,538.699,0.0
53982.0,STARLINK-5120,PAYLOAD,2024-03-31 20:37:00,15.08840716,0.0001401,53.217,151.7298,88.9234,271.1918,-5.4856e-06,-3.75e-06,0.0,0 STARLINK-5120,1 53982U 22125U   24091.85902794 -.00000375  00000-0 -54856-5 0  9999,2 53982  53.2170 151.7298 0001401  88.9234 271.1918 15.08840716 82672,6917.878,95.438,540.712,538.774,0.0
53982.0,STARLINK-5120,PAYLOAD,2024-04-01 14:06:14,15.08849113,0.0001367,53.2157,148.4583,89.7091,270.4058,0.00024615,3.633e-05,0.0,0 STARLINK-5120,1 53982U 22125U   24092.58766320  .00003633  00000-0  24615-3 0  9999,2 53982  53.2157 148.4583 0001367  89.7091 270.4058 15.08849113 82709,6917.853,95.437,540.663,538.772,0.0
